[
    {
        "Altitude(m)": 717803.3844123426,
        "Argument of Periapsis(deg)": 0.0034170363559881197,
        "Eccentricity": 0.0,
        "Inclination(deg)": 45.0,
        "Latitude(deg)": -44.9609409032917,
        "Longitude(deg)": 13.144211461630018,
        "Mean Anomaly(deg)": -94.72183500575574,
        "RAAN(deg)": 209.9967744175626,
        "Satellite Name": "Constellation 1 940",
        "Satellite Number": 940,
        "Semi-Major Axis(m)": 7083131.272910544,
        "Time(s)": 57
    },
    {
        "Altitude(m)": 717805.4069037036,
        "Argument of Periapsis(deg)": 0.003476984362233526,
        "Eccentricity": 0.0,
        "Inclination(deg)": 45.0,
        "Latitude(deg)": -44.96587152635412,
        "Longitude(deg)": 13.22517408807329,
        "Mean Anomaly(deg)": -94.66113386550586,
        "RAAN(deg)": 209.99671782839698,
        "Satellite Name": "Constellation 1 940",
        "Satellite Number": 940,
        "Semi-Major Axis(m)": 7083131.272910544,
        "Time(s)": 58
    },
    {
        "Altitude(m)": 717807.4032735548,
        "Argument of Periapsis(deg)": 0.003536932368478932,
        "Eccentricity": 0.0,
        "Inclination(deg)": 45.0,
        "Latitude(deg)": -44.97073879040209,
        "Longitude(deg)": 13.306150997704343,
        "Mean Anomaly(deg)": -94.60043272525591,
        "RAAN(deg)": 209.99666123923143,
        "Satellite Name": "Constellation 1 940",
        "Satellite Number": 940,
        "Semi-Major Axis(m)": 7083131.272910544,
        "Time(s)": 59
    },
    {
        "Altitude(m)": 717809.3735145045,
        "Argument of Periapsis(deg)": 0.003596880374724337,
        "Eccentricity": 0.0,
        "Inclination(deg)": 45.0,
        "Latitude(deg)": -44.9755426742171,
        "Longitude(deg)": 13.387142344632771,
        "Mean Anomaly(deg)": -94.53973158500604,
        "RAAN(deg)": 209.99660465006585,
        "Satellite Name": "Constellation 1 940",
        "Satellite Number": 940,
        "Semi-Major Axis(m)": 7083131.272910544,
        "Time(s)": 60
    },
    {
        "Altitude(m)": 717811.3176192563,
        "Argument of Periapsis(deg)": 0.0036568283809697427,
        "Eccentricity": 0.0,
        "Inclination(deg)": 45.0,
        "Latitude(deg)": -44.980283156849126,
        "Longitude(deg)": 13.468147778427888,
        "Mean Anomaly(deg)": -94.47903044475618,
        "RAAN(deg)": 209.9965480609003,
        "Satellite Name": "Constellation 1 940",
        "Satellite Number": 940,
        "Semi-Major Axis(m)": 7083131.272910544,
        "Time(s)": 61
    },
    {
        "Altitude(m)": 717813.235580616,
        "Argument of Periapsis(deg)": 0.003716776387215149,
        "Eccentricity": 0.0,
        "Inclination(deg)": 45.0,
        "Latitude(deg)": -44.98496021761567,
        "Longitude(deg)": 13.549167116509667,
        "Mean Anomaly(deg)": -94.41832930450624,
        "RAAN(deg)": 209.99649147173469,
        "Satellite Name": "Constellation 1 940",
        "Satellite Number": 940,
        "Semi-Major Axis(m)": 7083131.272910544,
        "Time(s)": 62
    },
    {
        "Altitude(m)": 717815.1273914758,
        "Argument of Periapsis(deg)": 0.003776724393460554,
        "Eccentricity": 0.0,
        "Inclination(deg)": 45.0,
        "Latitude(deg)": -44.989573836102664,
        "Longitude(deg)": 13.630200176054137,
        "Mean Anomaly(deg)": -94.35762816425625,
        "RAAN(deg)": 209.99643488256913,
        "Satellite Name": "Constellation 1 940",
        "Satellite Number": 940,
        "Semi-Major Axis(m)": 7083131.272910544,
        "Time(s)": 63
    },
    {
        "Altitude(m)": 717816.9930448355,
        "Argument of Periapsis(deg)": 0.003836672399705959,
        "Eccentricity": 0.0,
        "Inclination(deg)": 45.0,
        "Latitude(deg)": -44.99412399216465,
        "Longitude(deg)": 13.71124677399695,
        "Mean Anomaly(deg)": -94.29692702400648,
        "RAAN(deg)": 209.99637829340355,
        "Satellite Name": "Constellation 1 940",
        "Satellite Number": 940,
        "Semi-Major Axis(m)": 7083131.272910544,
        "Time(s)": 64
    },
    {
        "Altitude(m)": 717818.8325337867,
        "Argument of Periapsis(deg)": 0.003896620405951365,
        "Eccentricity": 0.0,
        "Inclination(deg)": 45.0,
        "Latitude(deg)": -44.99861066592548,
        "Longitude(deg)": 13.79230672703722,
        "Mean Anomaly(deg)": -94.23622588375655,
        "RAAN(deg)": 209.996321704238,
        "Satellite Name": "Constellation 1 940",
        "Satellite Number": 940,
        "Semi-Major Axis(m)": 7083131.272910544,
        "Time(s)": 65
    },
    {
        "Altitude(m)": 717820.6458515144,
        "Argument of Periapsis(deg)": 0.003956568412196771,
        "Eccentricity": 0.0,
        "Inclination(deg)": 45.0,
        "Latitude(deg)": -45.00303383777856,
        "Longitude(deg)": 13.873379851638786,
        "Mean Anomaly(deg)": -94.17552474350668,
        "RAAN(deg)": 209.99626511507245,
        "Satellite Name": "Constellation 1 940",
        "Satellite Number": 940,
        "Semi-Major Axis(m)": 7083131.272910544,
        "Time(s)": 66
    },
    {
        "Altitude(m)": 717822.4329913029,
        "Argument of Periapsis(deg)": 0.004016516418442176,
        "Eccentricity": 0.0,
        "Inclination(deg)": 45.0,
        "Latitude(deg)": -45.00739348838758,
        "Longitude(deg)": 13.95446579593794,
        "Mean Anomaly(deg)": -94.11482360325672,
        "RAAN(deg)": 209.99620852590684,
        "Satellite Name": "Constellation 1 940",
        "Satellite Number": 940,
        "Semi-Major Axis(m)": 7083131.272910544,
        "Time(s)": 67
    },
    {
        "Altitude(m)": 717824.1939465333,
        "Argument of Periapsis(deg)": 0.004076464424687581,
        "Eccentricity": 0.0,
        "Inclination(deg)": 45.0,
        "Latitude(deg)": -45.01168959868572,
        "Longitude(deg)": 14.03556471213345,
        "Mean Anomaly(deg)": -94.05412246300685,
        "RAAN(deg)": 209.99615193674128,
        "Satellite Name": "Constellation 1 940",
        "Satellite Number": 940,
        "Semi-Major Axis(m)": 7083131.272910544,
        "Time(s)": 68
    },
    {
        "Altitude(m)": 717825.9287106832,
        "Argument of Periapsis(deg)": 0.004136412430932987,
        "Eccentricity": 0.0,
        "Inclination(deg)": 45.0,
        "Latitude(deg)": -45.01592214987788,
        "Longitude(deg)": 14.116676247908602,
        "Mean Anomaly(deg)": -93.9934213227569,
        "RAAN(deg)": 209.9960953475757,
        "Satellite Name": "Constellation 1 940",
        "Satellite Number": 940,
        "Semi-Major Axis(m)": 7083131.272910544,
        "Time(s)": 69
    },
    {
        "Altitude(m)": 717827.6372773286,
        "Argument of Periapsis(deg)": 0.004196360437178394,
        "Eccentricity": 0.0,
        "Inclination(deg)": 45.0,
        "Latitude(deg)": -45.02009112343979,
        "Longitude(deg)": 14.197800218821186,
        "Mean Anomaly(deg)": -93.93272018250705,
        "RAAN(deg)": 209.99603875841015,
        "Satellite Name": "Constellation 1 940",
        "Satellite Number": 940,
        "Semi-Major Axis(m)": 7083131.272910544,
        "Time(s)": 70
    },
    {
        "Altitude(m)": 717829.3196401407,
        "Argument of Periapsis(deg)": 0.004256308443423799,
        "Eccentricity": 0.0,
        "Inclination(deg)": 45.0,
        "Latitude(deg)": -45.02419650111885,
        "Longitude(deg)": 14.278936440210819,
        "Mean Anomaly(deg)": -93.87201904225718,
        "RAAN(deg)": 209.99598216924454,
        "Satellite Name": "Constellation 1 940",
        "Satellite Number": 940,
        "Semi-Major Axis(m)": 7083131.272910544,
        "Time(s)": 71
    },
    {
        "Altitude(m)": 717830.9757928832,
        "Argument of Periapsis(deg)": 0.004316256449669204,
        "Eccentricity": 0.0,
        "Inclination(deg)": 45.0,
        "Latitude(deg)": -45.028238264934345,
        "Longitude(deg)": 14.36008472720125,
        "Mean Anomaly(deg)": -93.81131790200723,
        "RAAN(deg)": 209.995925580079,
        "Satellite Name": "Constellation 1 940",
        "Satellite Number": 940,
        "Semi-Major Axis(m)": 7083131.272910544,
        "Time(s)": 72
    },
    {
        "Altitude(m)": 717832.6057294236,
        "Argument of Periapsis(deg)": 0.00437620445591461,
        "Eccentricity": 0.0,
        "Inclination(deg)": 45.0,
        "Latitude(deg)": -45.03221639717786,
        "Longitude(deg)": 14.441244894703532,
        "Mean Anomaly(deg)": -93.75061676175737,
        "RAAN(deg)": 209.99586899091344,
        "Satellite Name": "Constellation 1 940",
        "Satellite Number": 940,
        "Semi-Major Axis(m)": 7083131.272910544,
        "Time(s)": 73
    },
    {
        "Altitude(m)": 717834.2094437198,
        "Argument of Periapsis(deg)": 0.004436152462160016,
        "Eccentricity": 0.0,
        "Inclination(deg)": 45.0,
        "Latitude(deg)": -45.036130880414035,
        "Longitude(deg)": 14.52241658932278,
        "Mean Anomaly(deg)": -93.6899156215075,
        "RAAN(deg)": 209.99581240174786,
        "Satellite Name": "Constellation 1 940",
        "Satellite Number": 940,
        "Semi-Major Axis(m)": 7083131.272910544,
        "Time(s)": 74
    },
    {
        "Altitude(m)": 717835.7869298322,
        "Argument of Periapsis(deg)": 0.0044961004684054215,
        "Eccentricity": 0.0,
        "Inclination(deg)": 45.0,
        "Latitude(deg)": -45.03998169747965,
        "Longitude(deg)": 14.6035999617488,
        "Mean Anomaly(deg)": -93.62921448125755,
        "RAAN(deg)": 209.9957558125823,
        "Satellite Name": "Constellation 1 940",
        "Satellite Number": 940,
        "Semi-Major Axis(m)": 7083131.272910544,
        "Time(s)": 75
    }
]